ONEWEB-0607             
1 54671U 22166AF  24249.87756009  .00000166  00000+0  36998-3 0  9993
2 54671  87.9351  13.2412 0001605  89.0037 271.1281 13.21823253 86220
ONEWEB-0608             
1 54672U 22166AG  24249.88387749  .00002658  00000+0  64039-2 0  9990
2 54672  87.9358  13.2664 0001967  77.3877 282.7476 13.21812378 86231
ONEWEB-0610             
1 54673U 22166AH  24249.86495202  .00000050  00000+0  88804-4 0  9995
2 54673  87.9351  13.2608 0001771  82.3809 277.7526 13.21826112 86148
ONEWEB-0611             
1 54674U 22166AJ  24249.85863982 -.00000209  00000+0 -53666-3 0  9994
2 54674  87.9356  13.2600 0001801 104.7178 255.4155 13.21825942 86138
ONEWEB-0612             
1 54675U 22166AK  24249.87126149  .00000109  00000+0  23135-3 0  9999
2 54675  87.9350  13.2398 0001711  88.8490 271.2840 13.21825034 86124
ONEWEB-0615             
1 54676U 22166AL  24249.32243182  .00000049  00000+0  87672-4 0  9997
2 54676  87.9350  13.3735 0001520  95.0321 265.0986 13.21828807 85595
ONEWEB-0655             
1 54677U 22166AM  24249.82551457  .00000108  00000+0  23028-3 0  9990
2 54677  87.9351  13.2760 0001273  95.7072 264.4207 13.21823265 86121
